STARLINK-5463           
1 55673U 23021AX  26068.66863471 -.00000813  00000+0 -60335-4 0  9991
2 55673  70.0007 164.4187 0003344 270.3234  89.7542 14.98331273169280
LEMUR-2-BALTO           
1 63395U 25052BH  26068.69493058  .00007621  00000+0  63456-3 0  9998
2 63395  97.6978 323.5166 0002279 359.2852   0.8367 14.98934076 53850
